KUIPER-00081            
1 65132U 25171A   25252.28018479  .00025941  00000+0  72921-3 0  9992
2 65132  51.8745 265.9388 0004593 223.1839 136.8787 15.36328906  5670
KUIPER-00088            
1 65133U 25171B   25252.28070706  .00031250  00000+0  87392-3 0  9992
2 65133  51.8761 265.9442 0004191 219.4117 140.6564 15.36392107  5671
KUIPER-00095            
1 65134U 25171C   25252.22702906  .00025665  00000+0  73660-3 0  9997
2 65134  51.8757 266.3268 0003539 257.4408 102.6183 15.35688466  5667
KUIPER-00096            
1 65135U 25171D   25252.28757722  .00033847  00000+0  10087-2 0  9994
2 65135  51.8752 265.9813 0003280  82.1944 277.9414 15.34357646  5671
KUIPER-00097            
1 65136U 25171E   25252.25004630 -.00008298  00000+0 -22491-3 0  9992
2 65136  51.8753 266.2292 0004001 263.1453 218.1272 15.35663658  4678
KUIPER-00098            
1 65137U 25171F   25252.28067897  .00028811  00000+0  81159-3 0  9997
2 65137  51.8758 265.9425 0004694 219.6691 140.3952 15.36205796  5012
KUIPER-00099            
1 65138U 25171G   25252.28301738  .00036543  00000+0  10258-2 0  9995
2 65138  51.8767 265.9586 0004730 230.0508 130.0064 15.36193815  5665
KUIPER-00100            
1 65139U 25171H   25252.28664656  .00029341  00000+0  83365-3 0  9995
2 65139  51.8752 265.9769 0004312 242.4449 117.6099 15.35929364  5664
KUIPER-00102            
1 65140U 25171J   25252.22725578  .00025137  00000+0  72387-3 0  9993
2 65140  51.8761 266.3247 0003746 254.9340 105.1231 15.35593860  5657
KUIPER-00103            
1 65141U 25171K   25251.76811995  .00031193  00000+0  88683-3 0  9996
2 65141  51.8760 268.4999 0003591 241.2244 118.8382 15.35879752  5581
KUIPER-00104            
1 65142U 25171L   25252.28751133  .00032242  00000+0  91446-3 0  9999
2 65142  51.8773 265.9909 0003625 243.7796 116.2818 15.35937469  5661
KUIPER-00105            
1 65143U 25171M   25252.27817925  .00035894  00000+0  99754-3 0  9997
2 65143  51.8758 265.9254 0004862 217.9840 142.0804 15.36515111  5675
KUIPER-00106            
1 65144U 25171N   25252.21932266  .00029391  00000+0  82819-3 0  9997
2 65144  51.8758 266.2743 0004614 225.3025 134.7586 15.36185337  5663
KUIPER-00107            
1 65145U 25171P   25252.28571317  .00036023  00000+0  10167-2 0  9997
2 65145  51.8760 265.9790 0004623 238.1893 121.8643 15.36031734  5673
KUIPER-00108            
1 65146U 25171Q   25252.22801699  .00022310  00000+0  64432-3 0  9990
2 65146  51.8776 266.3400 0004460 259.0925 100.9559 15.35572651  5661
KUIPER-00109            
1 65147U 25171R   25252.28249599  .00026295  00000+0  74166-3 0  9993
2 65147  51.8760 265.9520 0004275 227.7140 132.3484 15.36217591  5664
KUIPER-00110            
1 65148U 25171S   25252.28359563  .00031555  00000+0  88700-3 0  9991
2 65148  51.8771 265.9645 0004071 227.1954 132.8690 15.36227451  5666
KUIPER-00111            
1 65149U 25171T   25252.28868225  .00028289  00000+0  80381-3 0  9999
2 65149  51.8768 265.9964 0003772 249.3107 110.7475 15.35948024  5661
KUIPER-00112            
1 65150U 25171U   25252.22904753  .00023145  00000+0  66790-3 0  9996
2 65150  51.8766 266.3432 0004391 266.5844  93.4640 15.35575886  5655
KUIPER-00114            
1 65151U 25171V   25252.25004630 -.00015717  00000+0 -51642-3 0  9993
2 65151  51.8790 266.3648 0004692 237.8196 165.1566 15.30351847  4889
KUIPER-00115            
1 65152U 25171W   25252.28412597  .00016569  00000+0  47322-3 0  9996
2 65152  51.8764 265.9602 0004236 228.0981 131.9645 15.36132288  5662
KUIPER-00116            
1 65153U 25171X   25252.28973989  .00014207  00000+0  41243-3 0  9997
2 65153  51.8768 266.0042 0003940 251.9530 108.1027 15.35747969  5660
KUIPER-00118            
1 65154U 25171Y   25252.25004630 -.00035228  00000+0 -10886-2 0  9999
2 65154  51.8778 266.3001 0003308 252.6309 198.1867 15.32813200  5648
KUIPER-00119            
1 65155U 25171Z   25252.02007816  .00023354  00000+0  65793-3 0  9997
2 65155  51.8766 267.1948 0004862 227.0737 132.9842 15.36321027  5624
METOP-SGA1              
1 65159U 25172A   25252.22575798  .00000067  00000+0  49024-4 0  9999
2 65159  98.7044 311.3342 0006478 302.2706  57.7844 14.23132141  3866
HULIANWANG DIGUI 8A     
1 65164U 25174A   25248.77796284  .00000119  00000+0  21064-3 0  9998
2 65164  86.5036 348.0653 0001230  93.9625 266.1655 13.33619332  3144
HULIANWANG DIGUI 8B     
1 65165U 25174B   25248.40962999  .00000015  00000+0 -16115-6 0  9997
2 65165  86.5015 348.1908 0001629  76.6267 283.5053 13.33151506  3091
HULIANWANG DIGUI 8C     
1 65166U 25174C   25248.71376775  .00000145  00000+0  27025-3 0  9995
2 65166  86.5028 348.0957 0002039  77.4678 282.6688 13.32065795  3132
HULIANWANG DIGUI 8D     
1 65167U 25174D   25248.71901767  .00000103  00000+0  18308-3 0  9999
2 65167  86.5046 348.1025 0001723  79.3583 280.7749 13.31929802  3139
HULIANWANG DIGUI 8E     
1 65168U 25174E   25248.49789688  .00000025  00000+0  20178-4 0  9993
2 65168  86.4992 348.1659 0001465  81.8331 278.2973 13.32038436  3107
HULIANWANG DIGUI 8F     
1 65169U 25174F   25248.72980556  .00000044  00000+0  60522-4 0  9995
2 65169  86.5061 348.0969 0002198  86.0096 274.1293 13.30840887  3130
HULIANWANG DIGUI 8G     
1 65170U 25174G   25247.90770553  .00000046  00000+0  65386-4 0  9995
2 65170  86.4980 348.3832 0003081  46.0526 314.0865 13.30865561  3022
HULIANWANG DIGUI 8H     
1 65171U 25174H   25248.67014052 -.00000013  00000+0 -61327-4 0  9993
2 65171  86.4949 348.1190 0002028 105.4806 254.6555 13.29209863  3125
HULIANWANG DIGUI 8J     
1 65172U 25174J   25249.26710444  .00000085  00000+0  15274-3 0  9994
2 65172  86.5001 347.9216 0001559  79.7912 280.3401 13.29344904  3202
HULIANWANG DIGUI 8K     
1 65173U 25174K   25248.22413517 -.00001664  00000+0 -36444-2 0  9998
2 65173  86.5006 348.2867 0001828  61.5846 298.5475 13.29122875  3032
STARLINK-34956          
1 65174U 25175A   25252.19720201  .00080270  00000+0  14626-2 0  9998
2 65174  97.6020 123.3343 0002150 100.4818 259.6675 15.49186239  5270
STARLINK-34949          
1 65175U 25175B   25252.19686203  .00053039  00000+0  97042-3 0  9999
2 65175  97.6023 123.3353 0002818  68.6399 291.5152 15.49184072  5318
STARLINK-34707          
1 65176U 25175C   25252.19651452  .00090930  00000+0  16540-2 0  9992
2 65176  97.6009 123.3340 0002341  80.5271 279.6244 15.49192936  5308
STARLINK-34967          
1 65177U 25175D   25252.19618564  .00088750  00000+0  16196-2 0  9994
2 65177  97.6004 123.3357 0002033 101.7116 258.4363 15.49109414  5300
STARLINK-34929          
1 65178U 25175E   25252.19582422  .00073686  00000+0  13433-2 0  9991
2 65178  97.6011 123.3364 0002141  94.9859 265.1636 15.49199621  5301
STARLINK-34932          
1 65179U 25175F   25252.25972669  .00024255  00000+0  44613-3 0  9998
2 65179  97.6019 123.4050 0001614  81.3458 278.7976 15.49201967  5317
STARLINK-34862          
1 65180U 25175G   25252.25938248  .00026623  00000+0  48930-3 0  9992
2 65180  97.6017 123.4065 0001632  84.5721 275.5716 15.49206465  5316
STARLINK-34942          
1 65181U 25175H   25252.19547992  .00075215  00000+0  13710-2 0  9996
2 65181  97.6011 123.3364 0002052  80.6338 279.5144 15.49198057  5271
STARLINK-34944          
1 65182U 25175J   25252.19444615  .00090719  00000+0  16500-2 0  9991
2 65182  97.6005 123.3381 0002199  85.8329 274.3173 15.49196612  5307
STARLINK-34939          
1 65183U 25175K   25252.19410362  .00087635  00000+0  15949-2 0  9993
2 65183  97.6010 123.3383 0002576  87.6298 272.5248 15.49190597  5275
STARLINK-34947          
1 65184U 25175L   25252.19375741  .00085090  00000+0  15490-2 0  9999
2 65184  97.6008 123.3391 0002145  79.7685 280.3807 15.49193678  5301
STARLINK-34945          
1 65185U 25175M   25252.19340847  .00000055  00000+0  28151-5 0  9998
2 65185  97.6032 123.3403 0002145  98.8499 261.2994 15.49211189  5301
STARLINK-34965          
1 65186U 25175N   25252.19272257  .00068375  00000+0  12481-2 0  9993
2 65186  97.6034 123.3408 0002070  96.2552 263.8934 15.49184488  5301
STARLINK-34915          
1 65187U 25175P   25252.19306716  .00056066  00000+0  10255-2 0  9993
2 65187  97.6034 123.3406 0002410 116.1918 243.9580 15.49179401  5301
STARLINK-34972          
1 65188U 25175Q   25252.19237627  .00090697  00000+0  16498-2 0  9991
2 65188  97.6010 123.3406 0001993 111.4124 248.7340 15.49192909  5279
STARLINK-34866          
1 65189U 25175R   25252.19203304  .00090765  00000+0  16508-2 0  9995
2 65189  97.6017 123.3411 0002140 105.2346 254.9141 15.49196287  5300
STARLINK-34917          
1 65190U 25175S   25252.25004630 -.00003048  00000+0 -54259-4 0  9992
2 65190  97.6031 123.4028 0001721  91.1613 234.2383 15.49188685  5286
STARLINK-34948          
1 65191U 25175T   25252.19134141  .00062789  00000+0  11473-2 0  9991
2 65191  97.6033 123.3444 0001805 118.2148 241.9285 15.49180786  5300
STARLINK-34955          
1 65192U 25175U   25252.25559113  .00073970  00000+0  13478-2 0  9990
2 65192  97.6025 123.4096 0001718  93.3572 266.7875 15.49212823  5288
STARLINK-34950          
1 65193U 25175V   25252.19065164  .00022858  00000+0  42020-3 0  9997
2 65193  97.6013 123.3423 0002094 102.7785 257.3700 15.49229636  5270
STARLINK-34926          
1 65194U 25175W   25252.18927193  .00021189  00000+0  38969-3 0  9999
2 65194  97.6012 123.3439 0002180 112.7127 247.4354 15.49232816  5273
STARLINK-34928          
1 65195U 25175X   25252.18961996  .00057997  00000+0  10606-2 0  9992
2 65195  97.6037 123.3447 0001880 106.9611 253.1845 15.49177260  5303
STARLINK-34927          
1 65196U 25175Y   25252.25490384  .00035015  00000+0  64178-3 0  9990
2 65196  97.6027 123.4108 0001682  84.1731 275.9711 15.49227796  5313
STARLINK-34952          
1 65197U 25175Z   25252.18996456  .00058512  00000+0  10699-2 0  9999
2 65197  97.6035 123.3448 0001916 100.7502 259.3964 15.49178975  5309
